{
    "links": {
        "self": "http://www.neowsapp.com/rest/v1/neo/3838056?api_key=iIulBulltgU6a56xZRHN4H3l9WmuAYTsLGpBGhQ2"
    },
    "id": "3838056",
    "neo_reference_id": "3838056",
    "name": "(2019 BG4)",
    "designation": "2019 BG4",
    "nasa_jpl_url": "http://ssd.jpl.nasa.gov/sbdb.cgi?sstr=3838056",
    "absolute_magnitude_h": 25.8,
    "estimated_diameter": {
        "kilometers": {
            "estimated_diameter_min": 0.0183888672,
            "estimated_diameter_max": 0.0411187571
        },
        "meters": {
            "estimated_diameter_min": 18.388867207,
            "estimated_diameter_max": 41.1187571041
        },
        "miles": {
            "estimated_diameter_min": 0.0114263088,
            "estimated_diameter_max": 0.0255500032
        },
        "feet": {
            "estimated_diameter_min": 60.3309310875,
            "estimated_diameter_max": 134.9040630575
        }
    },
    "is_potentially_hazardous_asteroid": false,
    "close_approach_data": [
        {
            "close_approach_date": "2019-02-01",
            "close_approach_date_full": "2019-Feb-01 18:12",
            "epoch_date_close_approach": 1549044720000,
            "relative_velocity": {
                "kilometers_per_second": "8.8134925192",
                "kilometers_per_hour": "31728.5730692321",
                "miles_per_hour": "19714.9014162681"
            },
            "miss_distance": {
                "astronomical": "0.1013541184",
                "lunar": "39.4267520576",
                "kilometers": "15162360.228367808",
                "miles": "9421453.7672914304"
            },
            "orbiting_body": "Earth"
        }
    ],
    "orbital_data": {
        "orbit_id": "1",
        "orbit_determination_date": "2019-01-29 21:12:21",
        "first_observation_date": "2019-01-27",
        "last_observation_date": "2019-01-29",
        "data_arc_in_days": 2,
        "observations_used": 19,
        "orbit_uncertainty": "8",
        "minimum_orbit_intersection": ".100967",
        "jupiter_tisserand_invariant": "4.477",
        "epoch_osculation": "2458511.5",
        "eccentricity": ".2768550190225606",
        "semi_major_axis": "1.492878216442018",
        "inclination": "15.61352381068376",
        "ascending_node_longitude": "128.2177024696009",
        "orbital_period": "666.2465887153298",
        "perihelion_distance": "1.079567389430597",
        "perihelion_argument": "15.67156345967404",
        "aphelion_distance": "1.90618904345344",
        "perihelion_time": "2458528.323953846132",
        "mean_anomaly": "350.9093367422923",
        "mean_motion": ".5403404776813332",
        "equinox": "J2000",
        "orbit_class": {
            "orbit_class_type": "AMO",
            "orbit_class_description": "Near-Earth asteroid orbits similar to that of 1221 Amor",
            "orbit_class_range": "1.017 AU < q (perihelion) < 1.3 AU"
        }
    },
    "is_sentry_object": false
}